{
  "norad_id": 59775,
  "name": "2024-092C",
  "history": [
    {
      "epoch": "2026-04-10T08:08:37.870080Z",
      "apogee_km": 488.1330822025666,
      "perigee_km": 474.4337221521537,
      "latitude_deg": 2.2133524933460523e-05,
      "longitude_deg": -91.38108180633992,
      "height_km": 481.7914678306458,
      "semi_major_axis_km": 6859.420402177359,
      "eccentricity": 0.00099858,
      "inclination_deg": 97.6526,
      "raan_deg": 229.3513,
      "arg_perigee_deg": 67.9996,
      "mean_anomaly_deg": 292.2303,
      "mean_motion_rev_day": 15.28169863
    },
    {
      "epoch": "2026-04-11T20:17:17.896128Z",
      "apogee_km": 488.00469720772253,
      "perigee_km": 474.40673620612233,
      "latitude_deg": 3.729631190230174e-05,
      "longitude_deg": 86.51473819124149,
      "height_km": 481.21694638086933,
      "semi_major_axis_km": 6859.342716706922,
      "eccentricity": 0.0009912,
      "inclination_deg": 97.6526,
      "raan_deg": 230.8983,
      "arg_perigee_deg": 63.2156,
      "mean_anomaly_deg": 297.0096,
      "mean_motion_rev_day": 15.28195824
    },
    {
      "epoch": "2026-04-13T06:51:38.597760Z",
      "apogee_km": 487.8760889391033,
      "perigee_km": 474.42557424437746,
      "latitude_deg": 8.835732352122682e-05,
      "longitude_deg": -72.01166473343858,
      "height_km": 480.7388499989146,
      "semi_major_axis_km": 6859.28783159174,
      "eccentricity": 0.00098046,
      "inclination_deg": 97.6528,
      "raan_deg": 232.378,
      "arg_perigee_deg": 58.7566,
      "mean_anomaly_deg": 301.4633,
      "mean_motion_rev_day": 15.28214166
    },
    {
      "epoch": "2026-04-14T20:34:32.323584Z",
      "apogee_km": 487.77007108666476,
      "perigee_km": 474.42200359599974,
      "latitude_deg": -5.063195854554035e-06,
      "longitude_deg": 82.32979497953107,
      "height_km": 480.2229717664714,
      "semi_major_axis_km": 6859.233037341332,
      "eccentricity": 0.000973,
      "inclination_deg": 97.6533,
      "raan_deg": 233.9922,
      "arg_perigee_deg": 53.7051,
      "mean_anomaly_deg": 306.5085,
      "mean_motion_rev_day": 15.28232478
    },
    {
      "epoch": "2026-04-15T20:08:50.130240Z",
      "apogee_km": 487.6939207151372,
      "perigee_km": 474.4337136953163,
      "latitude_deg": -5.75112145624936e-05,
      "longitude_deg": 88.7964577386401,
      "height_km": 479.9363514845572,
      "semi_major_axis_km": 6859.2008172052265,
      "eccentricity": 0.0009666,
      "inclination_deg": 97.6537,
      "raan_deg": 235.0011,
      "arg_perigee_deg": 50.6268,
      "mean_anomaly_deg": 309.5825,
      "mean_motion_rev_day": 15.28243246
    },
    {
      "epoch": "2026-04-16T19:43:07.327776Z",
      "apogee_km": 487.6068686240469,
      "perigee_km": 474.44961785446503,
      "latitude_deg": 6.360006497349383e-05,
      "longitude_deg": 95.2655422303337,
      "height_km": 479.6487928470466,
      "semi_major_axis_km": 6859.165243239256,
      "eccentricity": 0.0009591,
      "inclination_deg": 97.6542,
      "raan_deg": 236.0099,
      "arg_perigee_deg": 47.3294,
      "mean_anomaly_deg": 312.8752,
      "mean_motion_rev_day": 15.28255135
    },
    {
      "epoch": "2026-04-17T22:25:58.084320Z",
      "apogee_km": 487.5092340432984,
      "perigee_km": 474.4651004319785,
      "latitude_deg": 2.6795645499134626e-05,
      "longitude_deg": 54.600353904518514,
      "height_km": 479.35089161872105,
      "semi_major_axis_km": 6859.124167237638,
      "eccentricity": 0.00095086,
      "inclination_deg": 97.6547,
      "raan_deg": 237.1533,
      "arg_perigee_deg": 43.6798,
      "mean_anomaly_deg": 316.5192,
      "mean_motion_rev_day": 15.28268863
    },
    {
      "epoch": "2026-04-18T20:25:56.745408Z",
      "apogee_km": 487.43538389762307,
      "perigee_km": 474.4497744383416,
      "latitude_deg": 3.710924420978282e-05,
      "longitude_deg": 84.64413877324017,
      "height_km": 479.11238946828325,
      "semi_major_axis_km": 6859.079579167982,
      "eccentricity": 0.0009466,
      "inclination_deg": 97.6551,
      "raan_deg": 238.095,
      "arg_perigee_deg": 40.8463,
      "mean_anomaly_deg": 319.3484,
      "mean_motion_rev_day": 15.28283765
    }
  ]
}